{
  "norad_id": 51962,
  "name": "STARLINK-3697",
  "history": [
    {
      "epoch": "2026-03-28T20:43:34.703904Z",
      "apogee_km": 475.9801540511289,
      "perigee_km": 474.45021170982363,
      "latitude_deg": -3.650556522060998e-05,
      "longitude_deg": 157.84333812006673,
      "height_km": 476.15106326609236,
      "semi_major_axis_km": 6853.352182880476,
      "eccentricity": 0.00011162,
      "inclination_deg": 53.1579,
      "raan_deg": 295.0159,
      "arg_perigee_deg": 92.8335,
      "mean_anomaly_deg": 267.2793,
      "mean_motion_rev_day": 15.30199962
    }
  ]
}