{"fetched_at":"2026-03-29T16:36:15Z","count":15609,"tles":[{"name":"STARLINK-3697","line1":"1 51962U 22025G   26087.86359611  .00000655  00000+0  34240-4 0  9998","line2":"2 51962  53.1579 295.0159 0001116  92.8335 267.2793 15.30199962223957","category":"Starlink"}]}